OBJECT B                
1 51825U 22019B   24173.94880459  .00010517  00000+0  46095-3 0  9999
2 51825  97.4292 245.2328 0013846 216.3950 143.6346 15.22094669127955
